FACSAT-2                
1 56205U 23054AD  23332.49352416  .00031038  00000+0  11241-2 0  9994
2 56205  97.3878 225.8440 0014458 141.4299 218.7977 15.28233135 35247
