{"type": "Feature", "geometry": {"type": "Point", "coordinates": ["-75.2121", "1.021"]}, "properties": {"temperature": "27", "pressure": "1,011", "localTime": "Tue Nov 28 2023 11:43:37 GMT-0500 (hora est\u00e1ndar de Colombia)", "julianTime": "1701189817", "utcTime": "11:43:49 AM", "altitude": "488.62", "elevation": "-15.2", "TLE": {"Norad_Id": 56205, "International_Classification": "Unclassified", "International_Designation": "23054AD", "Epoch_Time_(ISO)": "2023-11-28T11:50:40Z", "First_Derivative_Mean_Motion": 0.00031038, "Second_Derivative_Mean_Motion": 0.0, "Inclination": 97.3878, "Right_Ascension_of_the_Ascending_Node": 225.844, "Eccentricity": 0.0014458, "Argument_of_Perigee": 141.42990000000003, "Mean_Anomaly": 218.7977, "Mean_Motion": 15.282331350000002, "Revolution_Number_at_Epoch": 3524}}}